     2.01           GLONASS NAV DATA                        RINEX VERSION / TYPE
CCRINEXG V1.4 UX    CDDIS               09-JAN-10 16:53     PGM / RUN BY / DATE 
IGS BROADCAST EPHEMERIS FILE                                COMMENT             
teqc  2009Mar23                         20100109  0:43:     COMMENT             
  2010     1     8    0.171363353729E-06                    CORR TO SYSTEM TIME 
    15                                                      LEAP SECONDS        
                                                            END OF HEADER       
15 10  1  8  1 45  0.0 0.117132440209E-03 0.000000000000E+00 0.567000000000E+04
    0.590023291016E+04 0.195859909058E+00 0.000000000000E+00 0.000000000000E+00
   -0.171603803711E+05 0.244935703278E+01-0.279396772385E-08 0.000000000000E+00
    0.178870288086E+05 0.229642677307E+01 0.000000000000E+00 0.000000000000E+00
17 10  1  8  1 45  0.0-0.279801897705E-03 0.000000000000E+00 0.603000000000E+04
    0.229723598633E+05 0.135111713409E+01 0.000000000000E+00 0.000000000000E+00
    0.455994775391E+04 0.389906883240E+00 0.186264514923E-08 0.400000000000E+01
   -0.102154594727E+05 0.320496082306E+01 0.931322574616E-09 0.000000000000E+00
18 10  1  8  1 45  0.0-0.141467899084E-04-0.909494701773E-12 0.540000000000E+04
    0.113463862305E+05 0.279247760773E+01 0.000000000000E+00 0.000000000000E+00
   -0.643325878906E+04 0.110939311981E+01 0.931322574616E-09-0.300000000000E+01
   -0.218781323242E+05 0.113189506531E+01 0.279396772385E-08 0.000000000000E+00
19 10  1  8  1 45  0.0-0.117031857371E-03-0.909494701773E-12 0.161700000000E+05
   -0.650611816406E+04 0.258388996124E+01-0.931322574616E-09 0.000000000000E+00
   -0.133374643555E+05 0.118360519409E+01 0.000000000000E+00 0.300000000000E+01
   -0.207518535156E+05-0.157136344910E+01 0.279396772385E-08 0.000000000000E+00
20 10  1  8  1 45  0.0-0.708969309926E-04 0.000000000000E+00 0.161700000000E+05
   -0.210018867188E+05 0.840343475342E+00 0.000000000000E+00 0.000000000000E+00
   -0.126092524414E+05 0.550176620483E+00-0.931322574616E-09 0.200000000000E+01
   -0.722715283203E+04-0.339527893066E+01 0.931322574616E-09 0.000000000000E+00
21 10  1  8  1 45  0.0-0.176607631147E-03-0.181898940355E-11 0.161700000000E+05
   -0.229372246094E+05-0.134183025360E+01 0.000000000000E+00 0.000000000000E+00
   -0.441475195312E+04-0.395995140076E+00-0.186264514923E-08 0.400000000000E+01
    0.101184404297E+05-0.322056388855E+01 0.000000000000E+00 0.000000000000E+00
 2 10  1  8  2 15  0.0-0.119158066809E-03-0.181898940355E-11 0.729000000000E+04
    0.646358593750E+04-0.225490665436E+01 0.000000000000E+00 0.000000000000E+00
    0.894765234375E+04 0.219816207886E+01 0.279396772385E-08-0.400000000000E+01
   -0.229925976563E+05 0.223134040833E+00 0.931322574615E-09 0.000000000000E+00
 3 10  1  8  2 15  0.0-0.525498762727E-04 0.909494701773E-12 0.720000000000E+04
    0.177868178711E+05-0.178248882294E+01 0.000000000000E+00 0.000000000000E+00
   -0.575244677734E+04 0.157571697235E+01 0.186264514923E-08 0.500000000000E+01
   -0.173539672852E+05-0.234870910644E+01 0.186264514923E-08 0.000000000000E+00
 5 10  1  8  2 15  0.0 0.000000000000E+00 0.000000000000E+00 0.723000000000E+04
    0.908972851562E+04 0.136579704285E+01 0.000000000000E+00 0.100000000000E+01
   -0.186192558594E+05-0.151988983154E+01-0.186264514923E-08 0.100000000000E+01
    0.148733164062E+05-0.273455142975E+01 0.000000000000E+00 0.000000000000E+00
 7 10  1  8  2 15  0.0 0.792844220996E-04 0.272848410532E-11 0.179700000000E+05
   -0.175446367188E+05 0.167746353149E+01 0.000000000000E+00 0.000000000000E+00
    0.625657324219E+04-0.169878005981E+01-0.186264514923E-08 0.500000000000E+01
    0.174218833008E+05 0.229555320740E+01-0.186264514923E-08 0.000000000000E+00
 8 10  1  8  2 15  0.0-0.778036192059E-04 0.909494701773E-12 0.179700000000E+05
   -0.188330600586E+05 0.281949043274E+00 0.000000000000E+00 0.000000000000E+00
    0.171124726562E+05-0.468091964722E-01 0.000000000000E+00 0.600000000000E+01
    0.171836572266E+04 0.356120777130E+01-0.931322574616E-09 0.000000000000E+00
 9 10  1  8  2 15  0.0-0.116345472634E-03-0.909494701773E-12 0.179700000000E+05
   -0.101189682617E+05-0.497393608093E+00-0.931322574616E-09 0.000000000000E+00
   -0.215241513672E+05-0.117469215393E+01-0.931322574616E-09-0.200000000000E+01
   -0.922324316406E+04 0.328897380829E+01 0.186264514923E-08 0.000000000000E+00
10 10  1  8  2 15  0.0-0.127197243273E-03 0.909494701773E-12 0.179700000000E+05
   -0.120162631836E+05-0.855630874634E+00 0.000000000000E+00 0.000000000000E+00
   -0.702178417969E+04-0.280310249329E+01 0.000000000000E+00-0.700000000000E+01
   -0.214068208008E+05 0.139235210419E+01 0.186264514923E-08 0.000000000000E+00
11 10  1  8  2 15  0.0-0.116458162665E-03 0.000000000000E+00 0.180600000000E+05
   -0.694656591797E+04-0.665637969971E+00 0.000000000000E+00 0.000000000000E+00
    0.122892763672E+05-0.283584594727E+01 0.186264514923E-08 0.000000000000E+00
   -0.212614594727E+05-0.141362762451E+01 0.931322574616E-09 0.000000000000E+00
13 10  1  8  2 15  0.0-0.258265994489E-03-0.909494701773E-12 0.723000000000E+04
    0.101778886719E+05 0.502937316895E+00 0.931322574616E-09 0.000000000000E+00
    0.214021718750E+05 0.120259189606E+01 0.186264514923E-08-0.200000000000E+01
    0.941031396484E+04-0.327677059174E+01-0.279396772385E-08 0.000000000000E+00
14 10  1  8  2 15  0.0-0.782869756222E-05 0.272848410532E-11 0.723000000000E+04
    0.119994252930E+05 0.851085662842E+00 0.000000000000E+00 0.000000000000E+00
    0.696840478516E+04 0.280951976776E+01 0.000000000000E+00-0.700000000000E+01
    0.213767065430E+05-0.139980697632E+01-0.186264514923E-08 0.000000000000E+00
15 10  1  8  2 15  0.0 0.117134302855E-03 0.909494701773E-12 0.723000000000E+04
    0.668261718750E+04 0.686075210571E+00 0.000000000000E+00 0.000000000000E+00
   -0.123601499023E+05 0.283545112610E+01-0.186264514923E-08 0.000000000000E+00
    0.212737714844E+05 0.144239521027E+01-0.931322574616E-09 0.000000000000E+00
17 10  1  8  2 15  0.0-0.279801897705E-03 0.000000000000E+00 0.723000000000E+04
    0.247474326172E+05 0.592970848083E+00 0.000000000000E+00 0.000000000000E+00
    0.485677197266E+04-0.284709930420E-01 0.186264514923E-08 0.400000000000E+01
   -0.412776904297E+04 0.351542568207E+01 0.000000000000E+00 0.000000000000E+00
18 10  1  8  2 15  0.0-0.141486525536E-04-0.909494701773E-12 0.720000000000E+04
    0.161978203125E+05 0.254764461517E+01 0.000000000000E+00 0.000000000000E+00
   -0.490465771484E+04 0.591219902039E+00 0.186264514923E-08-0.300000000000E+01
   -0.190173808594E+05 0.202622604370E+01 0.186264514923E-08 0.000000000000E+00
19 10  1  8  2 15  0.0-0.117033720016E-03-0.909494701773E-12 0.179700000000E+05
   -0.144963476562E+04 0.299188995361E+01-0.931322574616E-09 0.000000000000E+00
   -0.114712026367E+05 0.861617088318E+00 0.000000000000E+00 0.300000000000E+01
   -0.227420576172E+05-0.625647544861E+00 0.279396772385E-08 0.000000000000E+00
20 10  1  8  2 15  0.0-0.708969309926E-04 0.000000000000E+00 0.179700000000E+05
   -0.187342094727E+05 0.166990852356E+01-0.931322574616E-09 0.000000000000E+00
   -0.115142783203E+05 0.623960494995E+00-0.931322574616E-09 0.200000000000E+01
   -0.129815395508E+05-0.295707416534E+01 0.186264514923E-08 0.000000000000E+00
21 10  1  8  2 15  0.0-0.176611356437E-03-0.181898940355E-11 0.179700000000E+05
   -0.246880537109E+05-0.575445175171E+00 0.000000000000E+00 0.000000000000E+00
   -0.472755957031E+04 0.165767669678E-01-0.186264514923E-08 0.400000000000E+01
    0.400312841797E+04-0.352983570099E+01 0.000000000000E+00 0.000000000000E+00
 2 10  1  8  2 45  0.0-0.119162723422E-03-0.181898940355E-11 0.912000000000E+04
    0.278559716797E+04-0.180377960205E+01 0.931322574615E-09 0.000000000000E+00
    0.130927700195E+05 0.236438751221E+01 0.279396772385E-08-0.400000000000E+01
   -0.217070395508E+05 0.119603824615E+01 0.931322574615E-09 0.000000000000E+00
 3 10  1  8  2 45  0.0-0.525480136275E-04 0.909494701773E-12 0.900000000000E+04
    0.144955727539E+05-0.182875919342E+01 0.000000000000E+00 0.000000000000E+00
   -0.234329931641E+04 0.219509124756E+01 0.186264514923E-08 0.500000000000E+01
   -0.208561044922E+05-0.151729011536E+01 0.186264514923E-08 0.000000000000E+00
 5 10  1  8  2 45  0.0 0.000000000000E+00 0.000000000000E+00 0.903000000000E+04
    0.109185297852E+05 0.673616409302E+00-0.931322574616E-09 0.100000000000E+01
   -0.210321269531E+05-0.111716651916E+01-0.931322574616E-09 0.100000000000E+01
    0.943958935547E+04-0.326368808746E+01 0.931322574616E-09 0.000000000000E+00
 7 10  1  8  2 45  0.0 0.792900100350E-04 0.272848410532E-11 0.197700000000E+05
   -0.144752949219E+05 0.168934059143E+01 0.000000000000E+00 0.000000000000E+00
    0.264048925781E+04-0.229928398132E+01-0.186264514923E-08 0.500000000000E+01
    0.208266035156E+05 0.146283054352E+01-0.186264514923E-08 0.000000000000E+00
 8 10  1  8  2 45  0.0-0.778017565608E-04 0.909494701773E-12 0.197700000000E+05
   -0.178275390625E+05 0.798257827759E+00 0.000000000000E+00 0.000000000000E+00
    0.164018417969E+05-0.761428833008E+00 0.000000000000E+00 0.600000000000E+01
    0.797920166016E+04 0.335008430481E+01-0.186264514923E-08 0.000000000000E+00
 9 10  1  8  2 45  0.0-0.116348266602E-03-0.181898940355E-11 0.197700000000E+05
   -0.109085761719E+05-0.337465286255E+00-0.931322574616E-09 0.000000000000E+00
   -0.228593002930E+05-0.308286666870E+00-0.186264514923E-08-0.200000000000E+01
   -0.302301708984E+04 0.355543899536E+01 0.186264514923E-08 0.000000000000E+00
10 10  1  8  2 45  0.0-0.127195380628E-03 0.909494701773E-12 0.197700000000E+05
   -0.137985883789E+05-0.108964824676E+01-0.931322574616E-09 0.000000000000E+00
   -0.115825644531E+05-0.222871685028E+01 0.000000000000E+00-0.700000000000E+01
   -0.181081591797E+05 0.224895954132E+01 0.186264514923E-08 0.000000000000E+00
